[{"OBJECT_NAME":"SKYSAT-C13","OBJECT_ID":"2018-099AW","EPOCH":"2026-03-09T15:57:39.212352","MEAN_MOTION":15.7671015,"ECCENTRICITY":0.00039856,"INCLINATION":96.9402,"RA_OF_ASC_NODE":116.3001,"ARG_OF_PERICENTER":199.1701,"MEAN_ANOMALY":160.9417,"EPHEMERIS_TYPE":0,"CLASSIFICATION_TYPE":"U","NORAD_CAT_ID":43802,"ELEMENT_SET_NO":999,"REV_AT_EPOCH":40716,"BSTAR":0.00055859913,"MEAN_MOTION_DOT":0.00089861,"MEAN_MOTION_DDOT":0},{"OBJECT_NAME":"STARLINK-36753","OBJECT_ID":"2026-025B","EPOCH":"2026-03-09T21:58:05.331072","MEAN_MOTION":15.75237918,"ECCENTRICITY":0.00016676,"INCLINATION":97.2841,"RA_OF_ASC_NODE":180.4754,"ARG_OF_PERICENTER":95.6352,"MEAN_ANOMALY":264.5103,"EPHEMERIS_TYPE":0,"CLASSIFICATION_TYPE":"U","NORAD_CAT_ID":67694,"ELEMENT_SET_NO":999,"REV_AT_EPOCH":598,"BSTAR":0.0015086332,"MEAN_MOTION_DOT":0.00231582,"MEAN_MOTION_DDOT":0}]
